TIANMU-1 08             
1 57400U 23101B   26066.00237819  .00000346  00000+0  14775-4 0  9993
2 57400  97.2717 118.7901 0006380 134.2174 225.9592 15.29204229146020
STARLINK-34239          
1 64728U 25144E   26068.62417513  .00034550  00000+0  11737-2 0  9991
2 64728  53.1602 181.2192 0001334  77.2019 282.9131 15.30186319 39709
